[{"OBJECT_NAME":"STARLINK-1560","OBJECT_ID":"2020-055K","EPOCH":"2026-03-10T00:00:02.999808","MEAN_MOTION":15.20380122,"ECCENTRICITY":0.00016209,"INCLINATION":53.1145,"RA_OF_ASC_NODE":124.8762,"ARG_OF_PERICENTER":110.2667,"MEAN_ANOMALY":94.4846,"EPHEMERIS_TYPE":0,"CLASSIFICATION_TYPE":"U","NORAD_CAT_ID":46036,"ELEMENT_SET_NO":999,"REV_AT_EPOCH":575,"BSTAR":0.060862486,"MEAN_MOTION_DOT":0.01468388,"MEAN_MOTION_DDOT":0},{"OBJECT_NAME":"STARLINK-1807","OBJECT_ID":"2020-073AN","EPOCH":"2026-03-09T15:34:45.873120","MEAN_MOTION":15.23578372,"ECCENTRICITY":0.0005019,"INCLINATION":53.0589,"RA_OF_ASC_NODE":228.5688,"ARG_OF_PERICENTER":167.7565,"MEAN_ANOMALY":192.3554,"EPHEMERIS_TYPE":0,"CLASSIFICATION_TYPE":"U","NORAD_CAT_ID":46706,"ELEMENT_SET_NO":999,"REV_AT_EPOCH":29731,"BSTAR":0.0017212,"MEAN_MOTION_DOT":0.00041618,"MEAN_MOTION_DDOT":0}]
